OBJECT_NAME,OBJECT_ID,EPOCH,MEAN_MOTION,ECCENTRICITY,INCLINATION,RA_OF_ASC_NODE,ARG_OF_PERICENTER,MEAN_ANOMALY,EPHEMERIS_TYPE,CLASSIFICATION_TYPE,NORAD_CAT_ID,ELEMENT_SET_NO,REV_AT_EPOCH,BSTAR,MEAN_MOTION_DOT,MEAN_MOTION_DDOT
SUOMI NPP,2011-061A,2026-06-11T15:08:53.098368,14.19516245,.00018407,98.7954,103.5452,19.3329,340.7917,0,U,37849,999,75765,.43106136E-4,.47E-6,0
YAOGAN-12,2011-066B,2026-06-11T15:05:07.882944,15.26540792,.00082285,97.1152,201.4586,239.8877,120.1547,0,U,37875,999,81119,.34992038E-3,.9087E-4,0
BEIDOU-2 M4,2012-018B,2026-06-09T14:29:07.108800,1.86229817,.00111465,55.6651,304.3456,277.0468,82.8157,0,U,38251,999,9580,0,-.6E-6,0
ARIRANG-3 (KOMPSAT-3),2012-025B,2026-06-11T15:02:25.560672,14.62201321,.0006459,98.1175,120.1827,123.4805,236.7014,0,U,38338,999,75053,.81555769E-4,.364E-5,0
METOP-B,2012-049A,2026-06-11T13:23:58.547328,14.21431212,.00025734,98.6506,214.1696,33.1763,326.9575,0,U,38771,999,71246,.60381704E-4,.89E-6,0
SJ-9A,2012-056A,2026-06-11T13:45:56.542176,14.85468630,.00239581,97.6706,134.7281,276.4092,83.4395,0,U,38860,999,69875,.13217126E-3,.1093E-4,0
COSMOS 2484 (RODNIK-S 6),2013-001C,2026-06-11T14:12:30.749184,12.42938743,.0027085,82.5022,225.3708,48.5494,311.7906,0,U,39059,999,60786,-.13895284E-3,-.9E-7,0
SARAL,2013-009A,2026-06-11T14:15:31.689792,14.32854567,.00010043,98.5557,349.2323,339.6554,20.4590,0,U,39086,999,69480,.46916689E-4,.84E-6,0
STRAND-1,2013-009E,2026-06-11T11:40:12.874368,14.37160014,.00075038,98.3921,342.8611,244.6927,115.3483,0,U,39090,999,69624,.10128651E-3,.258E-5,0
BRITE-AUSTRIA,2013-009F,2026-06-11T10:14:54.820032,14.36539758,.00089923,98.3993,342.0055,255.9460,104.0727,0,U,39091,999,69622,.62670036E-4,.141E-5,0
GAOFEN-1,2013-018A,2026-06-11T15:23:56.192640,14.76532378,.00157488,97.9095,234.8222,285.9618,73.9857,0,U,39150,999,70742,.94371361E-4,.608E-5,0
NEE-01 PEGASO,2013-018B,2026-06-11T08:53:19.824576,14.93633706,.00126441,98.1214,306.3290,177.4473,182.6812,0,U,39151,999,70983,.17424026E-3,.1781E-4,0
PROBA-V,2013-021A,2026-06-11T11:54:46.581408,14.23595841,.00049176,98.3582,141.3840,136.9652,223.1913,0,U,39159,999,68030,.46357117E-4,.65E-6,0
ARIRANG-5 (KOMPSAT-5),2013-042A,2026-06-11T13:54:10.821024,15.04476719,.00048164,97.6218,349.3592,135.6105,224.5507,0,U,39227,999,70301,.92855579E-4,.1238E-4,0
GONETS-M 5,2013-048A,2026-06-11T13:27:18.503712,12.42891829,.00158718,82.4836,346.8914,223.2697,136.7136,0,U,39249,999,57818,.67311778E-3,.103E-5,0
GONETS-M 7,2013-048C,2026-06-11T14:30:01.742976,12.42914398,.00166584,82.4903,349.7836,224.6198,135.3542,0,U,39251,999,57814,.18621403E-3,.36E-6,0
FENGYUN 3C,2013-052A,2026-06-11T14:26:48.778944,14.15753838,.00155213,98.4976,136.7333,42.9600,317.2784,0,U,39260,999,65777,.62069161E-4,.81E-6,0
CASSIOPE,2013-055A,2026-06-11T14:01:57.378432,15.24666325,.0294782,80.9146,73.5212,81.2239,282.2252,0,U,39265,999,66681,.47358287E-3,.43142E-3,-.552054E-6
APRIZESAT 7,2013-066A,2026-06-11T14:03:37.594656,14.91552327,.00345918,97.7707,115.8865,228.2771,131.5488,0,U,39416,999,68039,.8156907E-4,.768E-5,0
ZACUBE-1 (TSHEPISOSAT),2013-066B,2026-06-11T11:23:51.095616,15.01152948,.00402103,97.8085,124.7807,267.7109,91.9510,0,U,39417,999,67987,.21783571E-3,.2775E-4,0
APRIZESAT 8,2013-066K,2026-06-11T02:06:36.657792,14.87640786,.00446914,97.8220,109.6410,307.2502,52.4642,0,U,39425,999,67876,.10067289E-3,.874E-5,0
