SUOMI NPP               
1 37849U 11061A   26162.63117012  .00000047  00000+0  43106-4 0  9996
2 37849  98.7954 103.5452 0001840  19.3329 340.7917 14.19516245757654
YAOGAN-12               
1 37875U 11066B   26162.62856346  .00009087  00000+0  34992-3 0  9994
2 37875  97.1152 201.4586 0008228 239.8877 120.1547 15.26540792811198
BEIDOU-2 M4             
1 38251U 12018B   26160.60355450 -.00000060  00000+0  00000+0 0  9999
2 38251  55.6651 304.3456 0011146 277.0468  82.8157  1.86229817 95808
ARIRANG-3 (KOMPSAT-3)   
1 38338U 12025B   26162.62668473  .00000364  00000+0  81556-4 0  9995
2 38338  98.1175 120.1827 0006459 123.4805 236.7014 14.62201321750531
METOP-B                 
1 38771U 12049A   26162.55831652  .00000089  00000+0  60382-4 0  9993
2 38771  98.6506 214.1696 0002573  33.1763 326.9575 14.21431212712469
SJ-9A                   
1 38860U 12056A   26162.57357109  .00001093  00000+0  13217-3 0  9992
2 38860  97.6706 134.7281 0023958 276.4092  83.4395 14.85468630698757
COSMOS 2484 (RODNIK-S 6)
1 39059U 13001C   26162.59202256 -.00000009  00000+0 -13895-3 0  9998
2 39059  82.5022 225.3708 0027085  48.5494 311.7906 12.42938743607867
SARAL                   
1 39086U 13009A   26162.59411678  .00000084  00000+0  46917-4 0  9999
2 39086  98.5557 349.2323 0001004 339.6554  20.4590 14.32854567694805
STRAND-1                
1 39090U 13009E   26162.48626012  .00000258  00000+0  10129-3 0  9990
2 39090  98.3921 342.8611 0007503 244.6927 115.3483 14.37160014696248
BRITE-AUSTRIA           
1 39091U 13009F   26162.42702338  .00000141  00000+0  62670-4 0  9991
2 39091  98.3993 342.0055 0008992 255.9460 104.0727 14.36539758696220
GAOFEN-1                
1 39150U 13018A   26162.64162260  .00000608  00000+0  94371-4 0  9996
2 39150  97.9095 234.8222 0015748 285.9618  73.9857 14.76532378707421
NEE-01 PEGASO           
1 39151U 13018B   26162.37036834  .00001781  00000+0  17424-3 0  9990
2 39151  98.1214 306.3290 0012644 177.4473 182.6812 14.93633706709836
PROBA-V                 
1 39159U 13021A   26162.49637247  .00000065  00000+0  46357-4 0  9992
2 39159  98.3582 141.3840 0004917 136.9652 223.1913 14.23595841680308
ARIRANG-5 (KOMPSAT-5)   
1 39227U 13042A   26162.57929191  .00001238  00000+0  92856-4 0  9990
2 39227  97.6218 349.3592 0004816 135.6105 224.5507 15.04476719703013
GONETS-M 5              
1 39249U 13048A   26162.56063083  .00000103  00000+0  67312-3 0  9996
2 39249  82.4836 346.8914 0015871 223.2697 136.7136 12.42891829578180
GONETS-M 7              
1 39251U 13048C   26162.60418684  .00000036  00000+0  18621-3 0  9999
2 39251  82.4903 349.7836 0016658 224.6198 135.3542 12.42914398578147
FENGYUN 3C              
1 39260U 13052A   26162.60195346  .00000081  00000+0  62069-4 0  9997
2 39260  98.4976 136.7333 0015521  42.9600 317.2784 14.15753838657775
CASSIOPE                
1 39265U 13055A   26162.58469188  .00043142 -55205-6  47358-3 0  9993
2 39265  80.9146  73.5212 0294782  81.2239 282.2252 15.24666325666812
APRIZESAT 7             
1 39416U 13066A   26162.58585179  .00000768  00000+0  81569-4 0  9997
2 39416  97.7707 115.8865 0034591 228.2771 131.5488 14.91552327680392
ZACUBE-1 (TSHEPISOSAT)  
1 39417U 13066B   26162.47489694  .00002775  00000+0  21784-3 0  9993
2 39417  97.8085 124.7807 0040210 267.7109  91.9510 15.01152948679879
APRIZESAT 8             
1 39425U 13066K   26162.08792428  .00000874  00000+0  10067-3 0  9991
2 39425  97.8220 109.6410 0044691 307.2502  52.4642 14.87640786678765
